{"type": "FeatureCollection", "features": [ {"type": "Feature", "properties": {"norad_id": 66825, "name": "STARLINK-35476", "group": "last-30-days", "lat": 51.98532011563641, "lon": -131.95738884294246, "alt_km": 320.4326233474694, "timestamp": "2025-12-12T05:47:27.527271+00:00", "meta": {"OBJECT_NAME": "STARLINK-35476", "OBJECT_ID": "2025-280E", "EPOCH": "2025-12-10T18:00:02.000160", "MEAN_MOTION": 15.87054454, "ECCENTRICITY": 0.0003729, "INCLINATION": 69.9936, "RA_OF_ASC_NODE": 204.5418, "ARG_OF_PERICENTER": 270.4103, "MEAN_ANOMALY": 282.4783, "EPHEMERIS_TYPE": 0, "CLASSIFICATION_TYPE": "U", "NORAD_CAT_ID": 66825, "ELEMENT_SET_NO": 999, "REV_AT_EPOCH": 243, "BSTAR": -0.0070194, "MEAN_MOTION_DOT": -0.0160143, "MEAN_MOTION_DDOT": 0}, "tle": {"line1": "1 66825U 25280E   25344.75002315 -.01601430  00000+0 -70194-2 0  9994", "line2": "2 66825  69.9936 204.5418 0003729 270.4103 282.4783 15.87054454  2439"}}, "geometry": {"type": "Point", "coordinates": [-131.95738884294246, 51.98532011563641]}}, {"type": "Feature", "properties": {"norad_id": 66826, "name": "STARLINK-35898", "group": "last-30-days", "lat": 53.46529370814387, "lon": -130.28415002999634, "alt_km": 320.2151860121294, "timestamp": "2025-12-12T05:47:27.527281+00:00", "meta": {"OBJECT_NAME": "STARLINK-35898", "OBJECT_ID": "2025-280F", "EPOCH": "2025-12-10T18:00:02.000160", "MEAN_MOTION": 15.87096157, "ECCENTRICITY": 0.0003795, "INCLINATION": 69.9935, "RA_OF_ASC_NODE": 204.5397, "ARG_OF_PERICENTER": 269.5275, "MEAN_ANOMALY": 284.9348, "EPHEMERIS_TYPE": 0, "CLASSIFICATION_TYPE": "U", "NORAD_CAT_ID": 66826, "ELEMENT_SET_NO": 999, "REV_AT_EPOCH": 258, "BSTAR": -0.007008, "MEAN_MOTION_DOT": -0.01602116, "MEAN_MOTION_DDOT": 0}, "tle": {"line1": "1 66826U 25280F   25344.75002315 -.01602116  00000+0 -70080-2 0  9991", "line2": "2 66826  69.9935 204.5397 0003795 269.5275 284.9348 15.87096157  2583"}}, "geometry": {"type": "Point", "coordinates": [-130.28415002999634, 53.46529370814387]}}, {"type": "Feature", "properties": {"norad_id": 66827, "name": "STARLINK-35959", "group": "last-30-days", "lat": 55.09658058907846, "lon": -128.2616944443026, "alt_km": 319.98124884140907, "timestamp": "2025-12-12T05:47:27.527291+00:00", "meta": {"OBJECT_NAME": "STARLINK-35959", "OBJECT_ID": "2025-280G", "EPOCH": "2025-12-10T18:00:02.000160", "MEAN_MOTION": 15.87138781, "ECCENTRICITY": 0.0003795, "INCLINATION": 69.9933, "RA_OF_ASC_NODE": 204.5376, "ARG_OF_PERICENTER": 269.301, "MEAN_ANOMALY": 287.0125, "EPHEMERIS_TYPE": 0, "CLASSIFICATION_TYPE": "U", "NORAD_CAT_ID": 66827, "ELEMENT_SET_NO": 999, "REV_AT_EPOCH": 258, "BSTAR": -0.0070318, "MEAN_MOTION_DOT": -0.01609866, "MEAN_MOTION_DDOT": 0}, "tle": {"line1": "1 66827U 25280G   25344.75002315 -.01609866  00000+0 -70318-2 0  9995", "line2": "2 66827  69.9933 204.5376 0003795 269.3010 287.0125 15.87138781  2581"}}, "geometry": {"type": "Point", "coordinates": [-128.2616944443026, 55.09658058907846]}}, {"type": "Feature", "properties": {"norad_id": 66828, "name": "STARLINK-35982", "group": "last-30-days", "lat": 58.40324710492757, "lon": -123.42588622133685, "alt_km": 319.44366060448647, "timestamp": "2025-12-12T05:47:27.527301+00:00", "meta": {"OBJECT_NAME": "STARLINK-35982", "OBJECT_ID": "2025-280H", "EPOCH": "2025-12-10T18:00:02.000160", "MEAN_MOTION": 15.87215168, "ECCENTRICITY": 0.0003751, "INCLINATION": 69.9934, "RA_OF_ASC_NODE": 204.533, "ARG_OF_PERICENTER": 270.7247, "MEAN_ANOMALY": 289.5054, "EPHEMERIS_TYPE": 0, "CLASSIFICATION_TYPE": "U", "NORAD_CAT_ID": 66828, "ELEMENT_SET_NO": 999, "REV_AT_EPOCH": 258, "BSTAR": -0.0070591, "MEAN_MOTION_DOT": -0.01620676, "MEAN_MOTION_DDOT": 0}, "tle": {"line1": "1 66828U 25280H   25344.75002315 -.01620676  00000+0 -70591-2 0  9991", "line2": "2 66828  69.9934 204.5330 0003751 270.7247 289.5054 15.87215168  2586"}}, "geometry": {"type": "Point", "coordinates": [-123.42588622133685, 58.40324710492757]}}, {"type": "Feature", "properties": {"norad_id": 66829, "name": "STARLINK-36084", "group": "last-30-days", "lat": 56.77171237681459, "lon": -125.9528539421011, "alt_km": 319.70226372171965, "timestamp": "2025-12-12T05:47:27.527313+00:00", "meta": {"OBJECT_NAME": "STARLINK-36084", "OBJECT_ID": "2025-280J", "EPOCH": "2025-12-10T18:00:02.000160", "MEAN_MOTION": 15.87176966, "ECCENTRICITY": 0.000381, "INCLINATION": 69.9933, "RA_OF_ASC_NODE": 204.5351, "ARG_OF_PERICENTER": 271.3474, "MEAN_ANOMALY": 286.9189, "EPHEMERIS_TYPE": 0, "CLASSIFICATION_TYPE": "U", "NORAD_CAT_ID": 66829, "ELEMENT_SET_NO": 999, "REV_AT_EPOCH": 242, "BSTAR": -0.0070441, "MEAN_MOTION_DOT": -0.0161503, "MEAN_MOTION_DDOT": 0}, "tle": {"line1": "1 66829U 25280J   25344.75002315 -.01615030  00000+0 -70441-2 0  9994", "line2": "2 66829  69.9933 204.5351 0003810 271.3474 286.9189 15.87176966  2429"}}, "geometry": {"type": "Point", "coordinates": [-125.9528539421011, 56.77171237681459]}}, {"type": "Feature", "properties": {"norad_id": 66830, "name": "STARLINK-35881", "group": "last-30-days", "lat": 59.68775281295248, "lon": -121.19844016690125, "alt_km": 319.1983807138722, "timestamp": "2025-12-12T05:47:27.527323+00:00", "meta": {"OBJECT_NAME": "STARLINK-35881", "OBJECT_ID": "2025-280K", "EPOCH": "2025-12-10T18:00:02.000160", "MEAN_MOTION": 15.8726419, "ECCENTRICITY": 0.0003676, "INCLINATION": 69.993, "RA_OF_ASC_NODE": 204.5307, "ARG_OF_PERICENTER": 269.9668, "MEAN_ANOMALY": 291.7888, "EPHEMERIS_TYPE": 0, "CLASSIFICATION_TYPE": "U", "NORAD_CAT_ID": 66830, "ELEMENT_SET_NO": 999, "REV_AT_EPOCH": 258, "BSTAR": -0.0070807, "MEAN_MOTION_DOT": -0.01628378, "MEAN_MOTION_DDOT": 0}, "tle": {"line1": "1 66830U 25280K   25344.75002315 -.01628378  00000+0 -70807-2 0  9991", "line2": "2 66830  69.9930 204.5307 0003676 269.9668 291.7888 15.87264190  2581"}}, "geometry": {"type": "Point", "coordinates": [-121.19844016690125, 59.68775281295248]}}, {"type": "Feature", "properties": {"norad_id": 66831, "name": "STARLINK-35788", "group": "last-30-days", "lat": 60.96441086905552, "lon": -118.7304812533677, "alt_km": 319.0529671970735, "timestamp": "2025-12-12T05:47:27.527335+00:00", "meta": {"OBJECT_NAME": "STARLINK-35788", "OBJECT_ID": "2025-280L", "EPOCH": "2025-12-10T18:00:02.000160", "MEAN_MOTION": 15.87306963, "ECCENTRICITY": 0.0003769, "INCLINATION": 69.9937, "RA_OF_ASC_NODE": 204.5293, "ARG_OF_PERICENTER": 268.9515, "MEAN_ANOMALY": 294.362, "EPHEMERIS_TYPE": 0, "CLASSIFICATION_TYPE": "U", "NORAD_CAT_ID": 66831, "ELEMENT_SET_NO": 999, "REV_AT_EPOCH": 258, "BSTAR": -0.007078, "MEAN_MOTION_DOT": -0.01630974, "MEAN_MOTION_DDOT": 0}, "tle": {"line1": "1 66831U 25280L   25344.75002315 -.01630974  00000+0 -70780-2 0  9997", "line2": "2 66831  69.9937 204.5293 0003769 268.9515 294.3620 15.87306963  2584"}}, "geometry": {"type": "Point", "coordinates": [-118.7304812533677, 60.96441086905552]}}, {"type": "Feature", "properties": {"norad_id": 66832, "name": "STARLINK-35768", "group": "last-30-days", "lat": 62.178963116533296, "lon": -116.08865163743604, "alt_km": 318.7815275894118, "timestamp": "2025-12-12T05:47:27.527346+00:00", "meta": {"OBJECT_NAME": "STARLINK-35768", "OBJECT_ID": "2025-280M", "EPOCH": "2025-12-10T18:00:02.000160", "MEAN_MOTION": 15.87348269, "ECCENTRICITY": 0.0003748, "INCLINATION": 69.9933, "RA_OF_ASC_NODE": 204.527, "ARG_OF_PERICENTER": 270.0502, "MEAN_ANOMALY": 294.78, "EPHEMERIS_TYPE": 0, "CLASSIFICATION_TYPE": "U", "NORAD_CAT_ID": 66832, "ELEMENT_SET_NO": 999, "REV_AT_EPOCH": 258, "BSTAR": -0.0070597, "MEAN_MOTION_DOT": -0.01630187, "MEAN_MOTION_DDOT": 0}, "tle": {"line1": "1 66832U 25280M   25344.75002315 -.01630187  00000+0 -70597-2 0  9990", "line2": "2 66832  69.9933 204.5270 0003748 270.0502 294.7800 15.87348269  2582"}}, "geometry": {"type": "Point", "coordinates": [-116.08865163743604, 62.178963116533296]}}, {"type": "Feature", "properties": {"norad_id": 66833, "name": "STARLINK-35858", "group": "last-30-days", "lat": 63.59654709107674, "lon": -112.54413901167837, "alt_km": 318.56870213368984, "timestamp": "2025-12-12T05:47:27.527363+00:00", "meta": {"OBJECT_NAME": "STARLINK-35858", "OBJECT_ID": "2025-280N", "EPOCH": "2025-12-10T18:00:02.000160", "MEAN_MOTION": 15.87387192, "ECCENTRICITY": 0.0003729, "INCLINATION": 69.9935, "RA_OF_ASC_NODE": 204.525, "ARG_OF_PERICENTER": 270.7614, "MEAN_ANOMALY": 296.0612, "EPHEMERIS_TYPE": 0, "CLASSIFICATION_TYPE": "U", "NORAD_CAT_ID": 66833, "ELEMENT_SET_NO": 999, "REV_AT_EPOCH": 258, "BSTAR": -0.0070772, "MEAN_MOTION_DOT": -0.01636461, "MEAN_MOTION_DDOT": 0}, "tle": {"line1": "1 66833U 25280N   25344.75002315 -.01636461  00000+0 -70772-2 0  9997", "line2": "2 66833  69.9935 204.5250 0003729 270.7614 296.0612 15.87387192  2587"}}, "geometry": {"type": "Point", "coordinates": [-112.54413901167837, 63.59654709107674]}}, {"type": "Feature", "properties": {"norad_id": 66834, "name": "STARLINK-35840", "group": "last-30-days", "lat": 64.69628420612072, "lon": -109.34364029493287, "alt_km": 318.41948726701776, "timestamp": "2025-12-12T05:47:27.527374+00:00", "meta": {"OBJECT_NAME": "STARLINK-35840", "OBJECT_ID": "2025-280P", "EPOCH": "2025-12-10T18:00:02.000160", "MEAN_MOTION": 15.87432671, "ECCENTRICITY": 0.0003772, "INCLINATION": 69.9932, "RA_OF_ASC_NODE": 204.5228, "ARG_OF_PERICENTER": 270.3164, "MEAN_ANOMALY": 298.0805, "EPHEMERIS_TYPE": 0, "CLASSIFICATION_TYPE": "U", "NORAD_CAT_ID": 66834, "ELEMENT_SET_NO": 999, "REV_AT_EPOCH": 258, "BSTAR": -0.0070856, "MEAN_MOTION_DOT": -0.01641469, "MEAN_MOTION_DDOT": 0}, "tle": {"line1": "1 66834U 25280P   25344.75002315 -.01641469  00000+0 -70856-2 0  9995", "line2": "2 66834  69.9932 204.5228 0003772 270.3164 298.0805 15.87432671  2583"}}, "geometry": {"type": "Point", "coordinates": [-109.34364029493287, 64.69628420612072]}}]}